CTC1_L_00289001-01
1 61615U 23721QD  26070.40834491  .00000000  00000+0  00000-0 0  9991
2 61615  75.0000   0.0000 0000000   0.0000   0.0000 15.18623435    12
CTC1_L_00289001-02
1 61616U 25211AS  26070.40834491  .00000000  00000+0  00000-0 0  9998
2 61616  75.0000   0.0000 0000000   0.0000  90.0000 15.18623435    12
CTC1_L_00289001-03
1 61617U 25865JE  26070.40834491  .00000000  00000+0  00000-0 0  9994
2 61617  75.0000   0.0000 0000000   0.0000 180.0000 15.18623435    13
CTC1_L_00289001-04
1 61618U 25617FI  26070.40834491  .00000000  00000+0  00000-0 0  9990
2 61618  75.0000   0.0000 0000000   0.0000 270.0000 15.18623435    14
CTC1_L_00289002-01
1 61619U 22130NQ  26070.40834491  .00000000  00000+0  00000-0 0  9998
2 61619  75.0000  12.0000 0000000   0.0000  12.0000 15.18623435    12
CTC1_L_00289002-02
1 61620U 24870TW  26070.40834491  .00000000  00000+0  00000-0 0  9993
2 61620  75.0000  12.0000 0000000   0.0000 102.0000 15.18623435    14
CTC1_L_00289002-03
1 61621U 25865ID  26070.40834491  .00000000  00000+0  00000-0 0  9999
2 61621  75.0000  12.0000 0000000   0.0000 192.0000 15.18623435    14
CTC1_L_00289002-04
1 61622U 23640PK  26070.40834491  .00000000  00000+0  00000-0 0  9999
2 61622  75.0000  12.0000 0000000   0.0000 282.0000 15.18623435    15
CTC1_L_00289003-01
1 61623U 26081WJ  26070.40834491  .00000000  00000+0  00000-0 0  9992
2 61623  75.0000  24.0000 0000000   0.0000  24.0000 15.18623435    13
CTC1_L_00289003-02
1 61624U 23717RU  26070.40834491  .00000000  00000+0  00000-0 0  9996
2 61624  75.0000  24.0000 0000000   0.0000 114.0000 15.18623435    14
CTC1_L_00289003-03
1 61625U 25842AN  26070.40834491  .00000000  00000+0  00000-0 0  9998
2 61625  75.0000  24.0000 0000000   0.0000 204.0000 15.18623435    15
CTC1_L_00289003-04
1 61626U 23871OR  26070.40834491  .00000000  00000+0  00000-0 0  9999
2 61626  75.0000  24.0000 0000000   0.0000 294.0000 15.18623435    15
CTC1_L_00289004-01
1 61627U 23827DH  26070.40834491  .00000000  00000+0  00000-0 0  9991
2 61627  75.0000  36.0000 0000000   0.0000  36.0000 15.18623435    13
CTC1_L_00289004-02
1 61628U 25802HC  26070.40834491  .00000000  00000+0  00000-0 0  9997
2 61628  75.0000  36.0000 0000000   0.0000 126.0000 15.18623435    14
CTC1_L_00289004-03
1 61629U 22399PA  26070.40834491  .00000000  00000+0  00000-0 0  9996
2 61629  75.0000  36.0000 0000000   0.0000 216.0000 15.18623435    15
CTC1_L_00289004-04
1 61630U 23788QS  26070.40834491  .00000000  00000+0  00000-0 0  9991
2 61630  75.0000  36.0000 0000000   0.0000 306.0000 15.18623435    17
CTC1_L_00289005-01
1 61631U 25644UT  26070.40834491  .00000000  00000+0  00000-0 0  9995
2 61631  75.0000  48.0000 0000000   0.0000  48.0000 15.18623435    14
CTC1_L_00289005-02
1 61632U 25481CC  26070.40834491  .00000000  00000+0  00000-0 0  9995
2 61632  75.0000  48.0000 0000000   0.0000 138.0000 15.18623435    15
CTC1_L_00289005-03
1 61633U 23364X   26070.40834491  .00000000  00000+0  00000-0 0  9994
2 61633  75.0000  48.0000 0000000   0.0000 228.0000 15.18623435    16
CTC1_L_00289005-04
1 61634U 26626CA  26070.40834491  .00000000  00000+0  00000-0 0  9999
2 61634  75.0000  48.0000 0000000   0.0000 318.0000 15.18623435    17
CTC1_L_00289006-01
1 61635U 23785UB  26070.40834491  .00000000  00000+0  00000-0 0  9993
2 61635  75.0000  60.0000 0000000   0.0000  60.0000 15.18623435    16
CTC1_L_00289006-02
1 61636U 24897HQ  26070.40834491  .00000000  00000+0  00000-0 0  9999
2 61636  75.0000  60.0000 0000000   0.0000 150.0000 15.18623435    17
CTC1_L_00289006-03
1 61637U 26422XB  26070.40834491  .00000000  00000+0  00000-0 0  9996
2 61637  75.0000  60.0000 0000000   0.0000 240.0000 15.18623435    18
CTC1_L_00289006-04
1 61638U 22502CO  26070.40834491  .00000000  00000+0  00000-0 0  9992
2 61638  75.0000  60.0000 0000000   0.0000 330.0000 15.18623435    19
CTC1_L_00289007-01
1 61639U 25949EL  26070.40834491  .00000000  00000+0  00000-0 0  9991
2 61639  75.0000  72.0000 0000000   0.0000  72.0000 15.18623435    16
CTC1_L_00289007-02
1 61640U 25441UX  26070.40834491  .00000000  00000+0  00000-0 0  9990
2 61640  75.0000  72.0000 0000000   0.0000 162.0000 15.18623435    18
CTC1_L_00289007-03
1 61641U 24897UD  26070.40834491  .00000000  00000+0  00000-0 0  9995
2 61641  75.0000  72.0000 0000000   0.0000 252.0000 15.18623435    19
CTC1_L_00289007-04
1 61642U 26708AJ  26070.40834491  .00000000  00000+0  00000-0 0  9999
2 61642  75.0000  72.0000 0000000   0.0000 342.0000 15.18623435    10
CTC1_L_00289008-01
1 61643U 26176MQ  26070.40834491  .00000000  00000+0  00000-0 0  9999
2 61643  75.0000  84.0000 0000000   0.0000  84.0000 15.18623435    17
CTC1_L_00289008-02
1 61644U 22184MZ  26070.40834491  .00000000  00000+0  00000-0 0  9995
2 61644  75.0000  84.0000 0000000   0.0000 174.0000 15.18623435    18
CTC1_L_00289008-03
1 61645U 22942IR  26070.40834491  .00000000  00000+0  00000-0 0  9998
2 61645  75.0000  84.0000 0000000   0.0000 264.0000 15.18623435    19
CTC1_L_00289008-04
1 61646U 23910BT  26070.40834491  .00000000  00000+0  00000-0 0  9995
2 61646  75.0000  84.0000 0000000   0.0000 354.0000 15.18623435    10
CTC1_L_00289009-01
1 61647U 22979WJ  26070.40834491  .00000000  00000+0  00000-0 0  9990
2 61647  75.0000  96.0000 0000000   0.0000  96.0000 15.18623435    17
CTC1_L_00289009-02
1 61648U 22073TS  26070.40834491  .00000000  00000+0  00000-0 0  9996
2 61648  75.0000  96.0000 0000000   0.0000 186.0000 15.18623435    18
CTC1_L_00289009-03
1 61649U 24149PG  26070.40834491  .00000000  00000+0  00000-0 0  9993
2 61649  75.0000  96.0000 0000000   0.0000 276.0000 15.18623435    19
CTC1_L_00289009-04
1 61650U 26086NY  26070.40834491  .00000000  00000+0  00000-0 0  9997
2 61650  75.0000  96.0000 0000000   0.0000   6.0000 15.18623435    12
CTC1_L_00289010-01
1 61651U 26205GN  26070.40834491  .00000000  00000+0  00000-0 0  9991
2 61651  75.0000 108.0000 0000000   0.0000 108.0000 15.18623435    10
CTC1_L_00289010-02
1 61652U 24764PM  26070.40834491  .00000000  00000+0  00000-0 0  9990
2 61652  75.0000 108.0000 0000000   0.0000 198.0000 15.18623435    10
CTC1_L_00289010-03
1 61653U 22050LM  26070.40834491  .00000000  00000+0  00000-0 0  9997
2 61653  75.0000 108.0000 0000000   0.0000 288.0000 15.18623435    11
CTC1_L_00289010-04
1 61654U 24963GG  26070.40834491  .00000000  00000+0  00000-0 0  9993
2 61654  75.0000 108.0000 0000000   0.0000  18.0000 15.18623435    13
CTC1_L_00289011-01
1 61655U 22982PY  26070.40834491  .00000000  00000+0  00000-0 0  9993
2 61655  75.0000 120.0000 0000000   0.0000 120.0000 15.18623435    12
CTC1_L_00289011-02
1 61656U 25214OO  26070.40834491  .00000000  00000+0  00000-0 0  9995
2 61656  75.0000 120.0000 0000000   0.0000 210.0000 15.18623435    13
CTC1_L_00289011-03
1 61657U 25816CW  26070.40834491  .00000000  00000+0  00000-0 0  9994
2 61657  75.0000 120.0000 0000000   0.0000 300.0000 15.18623435    14
CTC1_L_00289011-04
1 61658U 23861AK  26070.40834491  .00000000  00000+0  00000-0 0  9993
2 61658  75.0000 120.0000 0000000   0.0000  30.0000 15.18623435    15
CTC1_L_00289012-01
1 61659U 23355KI  26070.40834491  .00000000  00000+0  00000-0 0  9992
2 61659  75.0000 132.0000 0000000   0.0000 132.0000 15.18623435    12
CTC1_L_00289012-02
1 61660U 25927JQ  26070.40834491  .00000000  00000+0  00000-0 0  9991
2 61660  75.0000 132.0000 0000000   0.0000 222.0000 15.18623435    14
CTC1_L_00289012-03
1 61661U 24115UG  26070.40834491  .00000000  00000+0  00000-0 0  9990
2 61661  75.0000 132.0000 0000000   0.0000 312.0000 15.18623435    15
CTC1_L_00289012-04
1 61662U 22840GR  26070.40834491  .00000000  00000+0  00000-0 0  9994
2 61662  75.0000 132.0000 0000000   0.0000  42.0000 15.18623435    16
CTC1_L_00289013-01
1 61663U 22429IQ  26070.40834491  .00000000  00000+0  00000-0 0  9998
2 61663  75.0000 144.0000 0000000   0.0000 144.0000 15.18623435    13
CTC1_L_00289013-02
1 61664U 24522IR  26070.40834491  .00000000  00000+0  00000-0 0  9995
2 61664  75.0000 144.0000 0000000   0.0000 234.0000 15.18623435    14
CTC1_L_00289013-03
1 61665U 24615OH  26070.40834491  .00000000  00000+0  00000-0 0  9999
2 61665  75.0000 144.0000 0000000   0.0000 324.0000 15.18623435    15
CTC1_L_00289013-04
1 61666U 25391PM  26070.40834491  .00000000  00000+0  00000-0 0  9992
2 61666  75.0000 144.0000 0000000   0.0000  54.0000 15.18623435    16
CTC1_L_00289014-01
1 61667U 23619UC  26070.40834491  .00000000  00000+0  00000-0 0  9994
2 61667  75.0000 156.0000 0000000   0.0000 156.0000 15.18623435    13
CTC1_L_00289014-02
1 61668U 26068IN  26070.40834491  .00000000  00000+0  00000-0 0  9996
2 61668  75.0000 156.0000 0000000   0.0000 246.0000 15.18623435    14
CTC1_L_00289014-03
1 61669U 22302ZR  26070.40834491  .00000000  00000+0  00000-0 0  9994
2 61669  75.0000 156.0000 0000000   0.0000 336.0000 15.18623435    15
CTC1_L_00289014-04
1 61670U 26561VE  26070.40834491  .00000000  00000+0  00000-0 0  9997
2 61670  75.0000 156.0000 0000000   0.0000  66.0000 15.18623435    17
CTC1_L_00289015-01
1 61671U 24871ZY  26070.40834491  .00000000  00000+0  00000-0 0  9990
2 61671  75.0000 168.0000 0000000   0.0000 168.0000 15.18623435    14
CTC1_L_00289015-02
1 61672U 26525KN  26070.40834491  .00000000  00000+0  00000-0 0  9999
2 61672  75.0000 168.0000 0000000   0.0000 258.0000 15.18623435    15
CTC1_L_00289015-03
1 61673U 24061GS  26070.40834491  .00000000  00000+0  00000-0 0  9993
2 61673  75.0000 168.0000 0000000   0.0000 348.0000 15.18623435    16
CTC1_L_00289015-04
1 61674U 22601VA  26070.40834491  .00000000  00000+0  00000-0 0  9992
2 61674  75.0000 168.0000 0000000   0.0000  78.0000 15.18623435    17
CTC1_L_00289016-01
1 61675U 26953QM  26070.40834491  .00000000  00000+0  00000-0 0  9997
2 61675  75.0000 180.0000 0000000   0.0000 180.0000 15.18623435    16
CTC1_L_00289016-02
1 61676U 26881NQ  26070.40834491  .00000000  00000+0  00000-0 0  9998
2 61676  75.0000 180.0000 0000000   0.0000 270.0000 15.18623435    17
